[{"OBJECT_NAME":"FLOCK 4Q-9","OBJECT_ID":"2023-174BU","EPOCH":"2026-04-05T12:01:58.420704","MEAN_MOTION":15.46318337,"ECCENTRICITY":0.00064616,"INCLINATION":97.3873,"RA_OF_ASC_NODE":182.4374,"ARG_OF_PERICENTER":55.9541,"MEAN_ANOMALY":304.2321,"EPHEMERIS_TYPE":0,"CLASSIFICATION_TYPE":"U","NORAD_CAT_ID":58322,"ELEMENT_SET_NO":999,"REV_AT_EPOCH":13434,"BSTAR":0.00064340922,"MEAN_MOTION_DOT":0.00031747,"MEAN_MOTION_DDOT":0},{"OBJECT_NAME":"FLOCK 4Q-4","OBJECT_ID":"2023-174BZ","EPOCH":"2026-04-05T04:30:33.819552","MEAN_MOTION":15.45692372,"ECCENTRICITY":0.00069503,"INCLINATION":97.3826,"RA_OF_ASC_NODE":181.4554,"ARG_OF_PERICENTER":75.2218,"MEAN_ANOMALY":284.98,"EPHEMERIS_TYPE":0,"CLASSIFICATION_TYPE":"U","NORAD_CAT_ID":58327,"ELEMENT_SET_NO":999,"REV_AT_EPOCH":13427,"BSTAR":0.00059440537,"MEAN_MOTION_DOT":0.00028692,"MEAN_MOTION_DDOT":0},{"OBJECT_NAME":"FLOCK 4Q-13","OBJECT_ID":"2023-174CA","EPOCH":"2026-04-05T11:56:01.970592","MEAN_MOTION":15.48586228,"ECCENTRICITY":0.0006766,"INCLINATION":97.3999,"RA_OF_ASC_NODE":184.3662,"ARG_OF_PERICENTER":64.7023,"MEAN_ANOMALY":295.4927,"EPHEMERIS_TYPE":0,"CLASSIFICATION_TYPE":"U","NORAD_CAT_ID":58328,"ELEMENT_SET_NO":999,"REV_AT_EPOCH":13441,"BSTAR":0.00054889456,"MEAN_MOTION_DOT":0.00029273,"MEAN_MOTION_DDOT":0},{"OBJECT_NAME":"FLOCK 4BE-18","OBJECT_ID":"2024-149N","EPOCH":"2026-04-05T11:13:34.324032","MEAN_MOTION":15.39529172,"ECCENTRICITY":0.00049344,"INCLINATION":97.3736,"RA_OF_ASC_NODE":178.566,"ARG_OF_PERICENTER":148.513,"MEAN_ANOMALY":211.6412,"EPHEMERIS_TYPE":0,"CLASSIFICATION_TYPE":"U","NORAD_CAT_ID":60480,"ELEMENT_SET_NO":999,"REV_AT_EPOCH":9111,"BSTAR":0.00058903693,"MEAN_MOTION_DOT":0.00023107,"MEAN_MOTION_DDOT":0},{"OBJECT_NAME":"FLOCK 4BE-7","OBJECT_ID":"2024-149P","EPOCH":"2026-04-05T04:37:21.010656","MEAN_MOTION":15.37472562,"ECCENTRICITY":0.00039964,"INCLINATION":97.377,"RA_OF_ASC_NODE":177.8042,"ARG_OF_PERICENTER":149.6218,"MEAN_ANOMALY":210.5259,"EPHEMERIS_TYPE":0,"CLASSIFICATION_TYPE":"U","NORAD_CAT_ID":60481,"ELEMENT_SET_NO":999,"REV_AT_EPOCH":9102,"BSTAR":0.00073286703,"MEAN_MOTION_DOT":0.00026918,"MEAN_MOTION_DDOT":0},{"OBJECT_NAME":"FLOCK 4BE-26","OBJECT_ID":"2024-149S","EPOCH":"2026-04-05T05:01:24.644064","MEAN_MOTION":15.50651855,"ECCENTRICITY":0.0005546,"INCLINATION":97.371,"RA_OF_ASC_NODE":178.5573,"ARG_OF_PERICENTER":179.9581,"MEAN_ANOMALY":180.1672,"EPHEMERIS_TYPE":0,"CLASSIFICATION_TYPE":"U","NORAD_CAT_ID":60484,"ELEMENT_SET_NO":999,"REV_AT_EPOCH":9109,"BSTAR":0.0025797174,"MEAN_MOTION_DOT":0.00150526,"MEAN_MOTION_DDOT":0},{"OBJECT_NAME":"FLOCK 4BE-36","OBJECT_ID":"2024-149U","EPOCH":"2026-04-05T11:33:07.399296","MEAN_MOTION":15.40439278,"ECCENTRICITY":0.00046321,"INCLINATION":97.3752,"RA_OF_ASC_NODE":179.1661,"ARG_OF_PERICENTER":156.3459,"MEAN_ANOMALY":203.8001,"EPHEMERIS_TYPE":0,"CLASSIFICATION_TYPE":"U","NORAD_CAT_ID":60486,"ELEMENT_SET_NO":999,"REV_AT_EPOCH":9115,"BSTAR":0.00063134606,"MEAN_MOTION_DOT":0.00025532,"MEAN_MOTION_DDOT":0},{"OBJECT_NAME":"FLOCK 4BE-25","OBJECT_ID":"2024-149V","EPOCH":"2026-04-05T11:21:10.753632","MEAN_MOTION":15.3697077,"ECCENTRICITY":0.00034867,"INCLINATION":97.3807,"RA_OF_ASC_NODE":178.2341,"ARG_OF_PERICENTER":143.6824,"MEAN_ANOMALY":216.4657,"EPHEMERIS_TYPE":0,"CLASSIFICATION_TYPE":"U","NORAD_CAT_ID":60487,"ELEMENT_SET_NO":999,"REV_AT_EPOCH":9106,"BSTAR":0.00051840947,"MEAN_MOTION_DOT":0.0001869,"MEAN_MOTION_DDOT":0},{"OBJECT_NAME":"FLOCK 4BE-31","OBJECT_ID":"2024-149W","EPOCH":"2026-04-05T12:00:39.218688","MEAN_MOTION":15.413634,"ECCENTRICITY":0.00036331,"INCLINATION":97.3806,"RA_OF_ASC_NODE":179.8632,"ARG_OF_PERICENTER":153.2048,"MEAN_ANOMALY":206.9387,"EPHEMERIS_TYPE":0,"CLASSIFICATION_TYPE":"U","NORAD_CAT_ID":60488,"ELEMENT_SET_NO":999,"REV_AT_EPOCH":9117,"BSTAR":0.00064715891,"MEAN_MOTION_DOT":0.00026987,"MEAN_MOTION_DDOT":0},{"OBJECT_NAME":"FLOCK 4BE-20","OBJECT_ID":"2024-149X","EPOCH":"2026-04-05T04:53:43.584288","MEAN_MOTION":15.36172155,"ECCENTRICITY":0.00048,"INCLINATION":97.3711,"RA_OF_ASC_NODE":177.0279,"ARG_OF_PERICENTER":153.4014,"MEAN_ANOMALY":206.7477,"EPHEMERIS_TYPE":0,"CLASSIFICATION_TYPE":"U","NORAD_CAT_ID":60489,"ELEMENT_SET_NO":999,"REV_AT_EPOCH":9100,"BSTAR":0.00054431352,"MEAN_MOTION_DOT":0.00019135,"MEAN_MOTION_DDOT":0},{"OBJECT_NAME":"FLOCK 4BE-23","OBJECT_ID":"2024-149Y","EPOCH":"2026-04-05T04:14:45.541536","MEAN_MOTION":15.35807754,"ECCENTRICITY":0.00043919,"INCLINATION":97.379,"RA_OF_ASC_NODE":177.3363,"ARG_OF_PERICENTER":159.6291,"MEAN_ANOMALY":200.5129,"EPHEMERIS_TYPE":0,"CLASSIFICATION_TYPE":"U","NORAD_CAT_ID":60490,"ELEMENT_SET_NO":999,"REV_AT_EPOCH":9098,"BSTAR":0.0005607847,"MEAN_MOTION_DOT":0.00019488,"MEAN_MOTION_DDOT":0},{"OBJECT_NAME":"FLOCK 4BE-15","OBJECT_ID":"2024-149Z","EPOCH":"2026-04-05T04:11:50.209152","MEAN_MOTION":15.45430516,"ECCENTRICITY":0.00053021,"INCLINATION":97.3721,"RA_OF_ASC_NODE":178.6606,"ARG_OF_PERICENTER":222.5192,"MEAN_ANOMALY":137.5647,"EPHEMERIS_TYPE":0,"CLASSIFICATION_TYPE":"U","NORAD_CAT_ID":60491,"ELEMENT_SET_NO":999,"REV_AT_EPOCH":9110,"BSTAR":0.0023553632,"MEAN_MOTION_DOT":0.00114143,"MEAN_MOTION_DDOT":0},{"OBJECT_NAME":"FLOCK 4BE-17","OBJECT_ID":"2024-149AA","EPOCH":"2026-04-05T04:33:22.554432","MEAN_MOTION":15.37680566,"ECCENTRICITY":0.00041918,"INCLINATION":97.3782,"RA_OF_ASC_NODE":178.0997,"ARG_OF_PERICENTER":149.7362,"MEAN_ANOMALY":210.4126,"EPHEMERIS_TYPE":0,"CLASSIFICATION_TYPE":"U","NORAD_CAT_ID":60492,"ELEMENT_SET_NO":999,"REV_AT_EPOCH":9103,"BSTAR":0.00060033142,"MEAN_MOTION_DOT":0.00022171,"MEAN_MOTION_DDOT":0},{"OBJECT_NAME":"FLOCK 4BE-22","OBJECT_ID":"2024-149AC","EPOCH":"2026-04-05T11:52:27.813504","MEAN_MOTION":15.38953809,"ECCENTRICITY":0.00045298,"INCLINATION":97.3742,"RA_OF_ASC_NODE":178.4903,"ARG_OF_PERICENTER":158.7341,"MEAN_ANOMALY":201.4094,"EPHEMERIS_TYPE":0,"CLASSIFICATION_TYPE":"U","NORAD_CAT_ID":60494,"ELEMENT_SET_NO":999,"REV_AT_EPOCH":9111,"BSTAR":0.00056210354,"MEAN_MOTION_DOT":0.00021631,"MEAN_MOTION_DDOT":0},{"OBJECT_NAME":"FLOCK 4BE-34","OBJECT_ID":"2024-149AD","EPOCH":"2026-04-05T04:32:14.592192","MEAN_MOTION":15.39059521,"ECCENTRICITY":0.00046073,"INCLINATION":97.3789,"RA_OF_ASC_NODE":178.9535,"ARG_OF_PERICENTER":165.7406,"MEAN_ANOMALY":194.3971,"EPHEMERIS_TYPE":0,"CLASSIFICATION_TYPE":"U","NORAD_CAT_ID":60495,"ELEMENT_SET_NO":999,"REV_AT_EPOCH":9109,"BSTAR":0.00063089872,"MEAN_MOTION_DOT":0.00024381,"MEAN_MOTION_DDOT":0},{"OBJECT_NAME":"FLOCK 4BE-32","OBJECT_ID":"2024-149AF","EPOCH":"2026-04-05T04:43:03.062208","MEAN_MOTION":15.39748755,"ECCENTRICITY":0.00046258,"INCLINATION":97.3728,"RA_OF_ASC_NODE":178.4718,"ARG_OF_PERICENTER":163.592,"MEAN_ANOMALY":196.5477,"EPHEMERIS_TYPE":0,"CLASSIFICATION_TYPE":"U","NORAD_CAT_ID":60497,"ELEMENT_SET_NO":999,"REV_AT_EPOCH":9109,"BSTAR":0.0006682536,"MEAN_MOTION_DOT":0.00026426,"MEAN_MOTION_DDOT":0}]
